IRIDIUM 36              
1 24967U 97056C   24333.73432684  .00001577  00000+0  52302-3 0  9991
2 24967  86.3965 257.1553 0002154  78.1680 281.9758 14.37257240423427
IRIDIUM 39              
1 25042U 97069D   24333.44477777  .00002242  00000+0  58972-3 0  9999
2 25042  86.3884 297.2061 0015667 256.0147 103.9315 14.48658309419890
IRIDIUM 38              
1 25043U 97069E   24333.47911328  .00001722  00000+0  56637-3 0  9996
2 25043  86.3933 317.6227 0003783  64.7878 295.3712 14.37737277417376
IRIDIUM 42              
1 25077U 97077A   24333.51937683  .00001634  00000+0  55614-3 0  9995
2 25077  86.3941 323.5293 0002902  80.1307 280.0217 14.36002656412395
IRIDIUM 44              
1 25078U 97077B   24333.80546439  .00001780  00000+0  56078-3 0  9990
2 25078  86.3926 305.8588 0002136  37.5798 322.5550 14.39870056414897
IRIDIUM 45              
1 25104U 97082A   24333.45619798  .00025184  00000+0  11505-2 0  9995
2 25104  86.3618 144.5974 0139908 359.1623   0.9357 15.12021067421601
IRIDIUM 24              
1 25105U 97082B   24333.34026456  .00001482  00000+0  44863-3 0  9996
2 25105  86.3926 165.4299 0012425  30.4572 329.7347 14.41692625414273
IRIDIUM 51              
1 25262U 98018A   24333.55895543  .00040849  00000+0  14385-2 0  9999
2 25262  86.3905 153.8295 0117732 292.8968  65.9882 15.22696999416320
